{
  "type": "FeatureCollection",
  "features": [
    {
      "type": "Feature",
      "properties": {
        "norad_id": 40010,
        "name": "KAZEOSAT 2",
        "group": "resource",
        "lat": 79.77716452581657,
        "lon": 151.41248228964517,
        "alt_km": 606.2037835049669,
        "timestamp": "2025-12-20T20:38:44.101154+00:00",
        "meta_object_name": "KAZEOSAT 2",
        "meta_object_id": "2014-033A",
        "meta_epoch": "2025-12-20T13:48:16.440192",
        "meta_mean_motion": 14.85177977,
        "meta_eccentricity": 0.00083392,
        "meta_inclination": 97.5497,
        "meta_ra_of_asc_node": 198.4846,
        "meta_arg_of_pericenter": 179.4742,
        "meta_mean_anomaly": 180.6484,
        "meta_ephemeris_type": 0,
        "meta_classification_type": "U",
        "meta_norad_cat_id": 40010,
        "meta_element_set_no": 999,
        "meta_rev_at_epoch": 62244,
        "meta_bstar": 1.9000057e-05,
        "meta_mean_motion_dot": 1.13e-06,
        "meta_mean_motion_ddot": 0,
        "tle_line1": "1 40010U 14033A   25354.57519028  .00000113  00000+0  19000-4 0  9990",
        "tle_line2": "2 40010  97.5497 198.4846 0008339 179.4742 180.6484 14.85177977622440"
      },
      "geometry": {
        "type": "Point",
        "coordinates": [
          151.41248228964517,
          79.77716452581657
        ]
      }
    },
    {
      "type": "Feature",
      "properties": {
        "norad_id": 40011,
        "name": "HODOYOSHI-4",
        "group": "resource",
        "lat": -58.23269657254131,
        "lon": -9.008605721361155,
        "alt_km": 605.9508657585175,
        "timestamp": "2025-12-20T20:38:44.101164+00:00",
        "meta_object_name": "HODOYOSHI-4",
        "meta_object_id": "2014-033B",
        "meta_epoch": "2025-12-20T14:43:56.406720",
        "meta_mean_motion": 14.87507407,
        "meta_eccentricity": 0.00238064,
        "meta_inclination": 97.5405,
        "meta_ra_of_asc_node": 183.1089,
        "meta_arg_of_pericenter": 174.2019,
        "meta_mean_anomaly": 185.9478,
        "meta_ephemeris_type": 0,
        "meta_classification_type": "U",
        "meta_norad_cat_id": 40011,
        "meta_element_set_no": 999,
        "meta_rev_at_epoch": 62225,
        "meta_bstar": 0.00016575958,
        "meta_mean_motion_dot": 1.458e-05,
        "meta_mean_motion_ddot": 0,
        "tle_line1": "1 40011U 14033B   25354.61384730  .00001458  00000+0  16576-3 0  9993",
        "tle_line2": "2 40011  97.5405 183.1089 0023806 174.2019 185.9478 14.87507407622253"
      },
      "geometry": {
        "type": "Point",
        "coordinates": [
          -9.008605721361155,
          -58.23269657254131
        ]
      }
    },
    {
      "type": "Feature",
      "properties": {
        "norad_id": 40013,
        "name": "DEIMOS-2",
        "group": "resource",
        "lat": -16.37372146460014,
        "lon": 48.14174368686766,
        "alt_km": 593.5069476668104,
        "timestamp": "2025-12-20T20:38:44.101174+00:00",
        "meta_object_name": "DEIMOS-2",
        "meta_object_id": "2014-033D",
        "meta_epoch": "2025-12-20T14:56:35.765088",
        "meta_mean_motion": 14.93007577,
        "meta_eccentricity": 0.00014765,
        "meta_inclination": 97.6069,
        "meta_ra_of_asc_node": 230.1624,
        "meta_arg_of_pericenter": 104.9603,
        "meta_mean_anomaly": 255.178,
        "meta_ephemeris_type": 0,
        "meta_classification_type": "U",
        "meta_norad_cat_id": 40013,
        "meta_element_set_no": 999,
        "meta_rev_at_epoch": 61107,
        "meta_bstar": 0.00021695705,
        "meta_mean_motion_dot": 2.201e-05,
        "meta_mean_motion_ddot": 0,
        "tle_line1": "1 40013U 14033D   25354.62263617  .00002201  00000+0  21696-3 0  9992",
        "tle_line2": "2 40013  97.6069 230.1624 0001476 104.9603 255.1780 14.93007577611072"
      },
      "geometry": {
        "type": "Point",
        "coordinates": [
          48.14174368686766,
          -16.37372146460014
        ]
      }
    },
    {
      "type": "Feature",
      "properties": {
        "norad_id": 40015,
        "name": "HODOYOSHI-3",
        "group": "resource",
        "lat": 81.29731492659886,
        "lon": 99.33925064377591,
        "alt_km": 622.4532311743242,
        "timestamp": "2025-12-20T20:38:44.101184+00:00",
        "meta_object_name": "HODOYOSHI-3",
        "meta_object_id": "2014-033F",
        "meta_epoch": "2025-12-20T10:33:15.533568",
        "meta_mean_motion": 14.84830501,
        "meta_eccentricity": 0.0032237,
        "meta_inclination": 97.6204,
        "meta_ra_of_asc_node": 159.9401,
        "meta_arg_of_pericenter": 221.7025,
        "meta_mean_anomaly": 138.1732,
        "meta_ephemeris_type": 0,
        "meta_classification_type": "U",
        "meta_norad_cat_id": 40015,
        "meta_element_set_no": 999,
        "meta_rev_at_epoch": 62109,
        "meta_bstar": 0.00014195012,
        "meta_mean_motion_dot": 1.164e-05,
        "meta_mean_motion_ddot": 0,
        "tle_line1": "1 40015U 14033F   25354.43976312  .00001164  00000+0  14195-3 0  9999",
        "tle_line2": "2 40015  97.6204 159.9401 0032237 221.7025 138.1732 14.84830501621092"
      },
      "geometry": {
        "type": "Point",
        "coordinates": [
          99.33925064377591,
          81.29731492659886
        ]
      }
    },
    {
      "type": "Feature",
      "properties": {
        "norad_id": 40053,
        "name": "SPOT 7",
        "group": "resource",
        "lat": -6.2036157856476,
        "lon": -124.13679457586386,
        "alt_km": 694.7587713933963,
        "timestamp": "2025-12-20T20:38:44.101194+00:00",
        "meta_object_name": "SPOT 7",
        "meta_object_id": "2014-034A",
        "meta_epoch": "2025-12-20T14:51:51.522048",
        "meta_mean_motion": 14.60743894,
        "meta_eccentricity": 0.00015894,
        "meta_inclination": 98.0902,
        "meta_ra_of_asc_node": 56.5138,
        "meta_arg_of_pericenter": 85.3359,
        "meta_mean_anomaly": 274.8023,
        "meta_ephemeris_type": 0,
        "meta_classification_type": "U",
        "meta_norad_cat_id": 40053,
        "meta_element_set_no": 999,
        "meta_rev_at_epoch": 61106,
        "meta_bstar": 0.00013221539,
        "meta_mean_motion_dot": 5.99e-06,
        "meta_mean_motion_ddot": 0,
        "tle_line1": "1 40053U 14034A   25354.61934632  .00000599  00000+0  13222-3 0  9992",
        "tle_line2": "2 40053  98.0902  56.5138 0001589  85.3359 274.8023 14.60743894611062"
      },
      "geometry": {
        "type": "Point",
        "coordinates": [
          -124.13679457586386,
          -6.2036157856476
        ]
      }
    },
    {
      "type": "Feature",
      "properties": {
        "norad_id": 40072,
        "name": "SKYSAT-B",
        "group": "resource",
        "lat": 1.8811676149097172,
        "lon": 119.2722607389117,
        "alt_km": 606.050493323135,
        "timestamp": "2025-12-20T20:38:44.101205+00:00",
        "meta_object_name": "SKYSAT-B",
        "meta_object_id": "2014-037D",
        "meta_epoch": "2025-12-20T10:09:39.392640",
        "meta_mean_motion": 14.87352271,
        "meta_eccentricity": 0.00066211,
        "meta_inclination": 98.3622,
        "meta_ra_of_asc_node": 298.5355,
        "meta_arg_of_pericenter": 128.6134,
        "meta_mean_anomaly": 231.5674,
        "meta_ephemeris_type": 0,
        "meta_classification_type": "U",
        "meta_norad_cat_id": 40072,
        "meta_element_set_no": 999,
        "meta_rev_at_epoch": 61938,
        "meta_bstar": 0.00013980446,
        "meta_mean_motion_dot": 1.202e-05,
        "meta_mean_motion_ddot": 0,
        "tle_line1": "1 40072U 14037D   25354.42337260  .00001202  00000+0  13980-3 0  9992",
        "tle_line2": "2 40072  98.3622 298.5355 0006621 128.6134 231.5674 14.87352271619387"
      },
      "geometry": {
        "type": "Point",
        "coordinates": [
          119.2722607389117,
          1.8811676149097172
        ]
      }
    },
    {
      "type": "Feature",
      "properties": {
        "norad_id": 40115,
        "name": "WORLDVIEW-3 (WV-3)",
        "group": "resource",
        "lat": 5.794699581468573,
        "lon": 66.23517118443935,
        "alt_km": 617.6739614639582,
        "timestamp": "2025-12-20T20:38:44.101214+00:00",
        "meta_object_name": "WORLDVIEW-3 (WV-3)",
        "meta_object_id": "2014-048A",
        "meta_epoch": "2025-12-20T10:54:51.112800",
        "meta_mean_motion": 14.84663942,
        "meta_eccentricity": 0.00017961,
        "meta_inclination": 97.8771,
        "meta_ra_of_asc_node": 66.6396,
        "meta_arg_of_pericenter": 136.5059,
        "meta_mean_anomaly": 223.6297,
        "meta_ephemeris_type": 0,
        "meta_classification_type": "U",
        "meta_norad_cat_id": 40115,
        "meta_element_set_no": 999,
        "meta_rev_at_epoch": 61538,
        "meta_bstar": 9.7642833e-05,
        "meta_mean_motion_dot": 7.73e-06,
        "meta_mean_motion_ddot": 0,
        "tle_line1": "1 40115U 14048A   25354.45475825  .00000773  00000+0  97643-4 0  9996",
        "tle_line2": "2 40115  97.8771  66.6396 0001796 136.5059 223.6297 14.84663942615381"
      },
      "geometry": {
        "type": "Point",
        "coordinates": [
          66.23517118443935,
          5.794699581468573
        ]
      }
    }
  ]
}